[{"OBJECT_NAME":"STARLINK-32362","OBJECT_ID":"2024-202A","EPOCH":"2025-08-11T13:52:13.038816","MEAN_MOTION":15.27585236,"ECCENTRICITY":0.0002618,"INCLINATION":43.0018,"RA_OF_ASC_NODE":333.3549,"ARG_OF_PERICENTER":270.0642,"MEAN_ANOMALY":89.991,"EPHEMERIS_TYPE":0,"CLASSIFICATION_TYPE":"U","NORAD_CAT_ID":61845,"ELEMENT_SET_NO":999,"REV_AT_EPOCH":4391,"BSTAR":-7.9766e-5,"MEAN_MOTION_DOT":-2.457e-5,"MEAN_MOTION_DDOT":0},{"OBJECT_NAME":"STARLINK-32472","OBJECT_ID":"2024-202B","EPOCH":"2025-08-11T14:49:34.521024","MEAN_MOTION":15.27584372,"ECCENTRICITY":8.94e-5,"INCLINATION":43.0026,"RA_OF_ASC_NODE":333.6607,"ARG_OF_PERICENTER":269.1242,"MEAN_ANOMALY":90.9507,"EPHEMERIS_TYPE":0,"CLASSIFICATION_TYPE":"U","NORAD_CAT_ID":61846,"ELEMENT_SET_NO":999,"REV_AT_EPOCH":4391,"BSTAR":-9.4591e-5,"MEAN_MOTION_DOT":-2.864e-5,"MEAN_MOTION_DDOT":0},{"OBJECT_NAME":"STARLINK-32352","OBJECT_ID":"2024-202C","EPOCH":"2025-08-12T08:34:42.288960","MEAN_MOTION":15.27561692,"ECCENTRICITY":0.0001636,"INCLINATION":43.006,"RA_OF_ASC_NODE":328.8878,"ARG_OF_PERICENTER":283.8461,"MEAN_ANOMALY":76.2209,"EPHEMERIS_TYPE":0,"CLASSIFICATION_TYPE":"U","NORAD_CAT_ID":61847,"ELEMENT_SET_NO":999,"REV_AT_EPOCH":4402,"BSTAR":5.2062e-5,"MEAN_MOTION_DOT":1.17e-5,"MEAN_MOTION_DDOT":0},{"OBJECT_NAME":"STARLINK-32427","OBJECT_ID":"2024-202D","EPOCH":"2025-08-12T13:39:22.298112","MEAN_MOTION":15.27583516,"ECCENTRICITY":0.0002089,"INCLINATION":42.997,"RA_OF_ASC_NODE":327.8936,"ARG_OF_PERICENTER":279.5627,"MEAN_ANOMALY":80.4988,"EPHEMERIS_TYPE":0,"CLASSIFICATION_TYPE":"U","NORAD_CAT_ID":61848,"ELEMENT_SET_NO":999,"REV_AT_EPOCH":4405,"BSTAR":-0.00010699,"MEAN_MOTION_DOT":-3.206e-5,"MEAN_MOTION_DDOT":0},{"OBJECT_NAME":"STARLINK-32346","OBJECT_ID":"2024-202E","EPOCH":"2025-08-11T23:37:30.879552","MEAN_MOTION":15.27559495,"ECCENTRICITY":0.0001177,"INCLINATION":42.9981,"RA_OF_ASC_NODE":331.2483,"ARG_OF_PERICENTER":278.3466,"MEAN_ANOMALY":81.7252,"EPHEMERIS_TYPE":0,"CLASSIFICATION_TYPE":"U","NORAD_CAT_ID":61849,"ELEMENT_SET_NO":999,"REV_AT_EPOCH":4387,"BSTAR":4.3328e-5,"MEAN_MOTION_DOT":9.3e-6,"MEAN_MOTION_DDOT":0},{"OBJECT_NAME":"STARLINK-32330","OBJECT_ID":"2024-202F","EPOCH":"2025-08-11T14:45:38.637792","MEAN_MOTION":15.27574727,"ECCENTRICITY":0.0001359,"INCLINATION":43.0025,"RA_OF_ASC_NODE":344.0203,"ARG_OF_PERICENTER":258.8157,"MEAN_ANOMALY":101.2542,"EPHEMERIS_TYPE":0,"CLASSIFICATION_TYPE":"U","NORAD_CAT_ID":61850,"ELEMENT_SET_NO":999,"REV_AT_EPOCH":4378,"BSTAR":-4.7413e-6,"MEAN_MOTION_DOT":-3.93e-6,"MEAN_MOTION_DDOT":0},{"OBJECT_NAME":"STARLINK-32379","OBJECT_ID":"2024-202G","EPOCH":"2025-08-12T08:29:08.946528","MEAN_MOTION":15.2756974,"ECCENTRICITY":9.03e-5,"INCLINATION":43.0015,"RA_OF_ASC_NODE":328.854,"ARG_OF_PERICENTER":239.9675,"MEAN_ANOMALY":120.1087,"EPHEMERIS_TYPE":0,"CLASSIFICATION_TYPE":"U","NORAD_CAT_ID":61851,"ELEMENT_SET_NO":999,"REV_AT_EPOCH":4394,"BSTAR":3.1063e-5,"MEAN_MOTION_DOT":5.93e-6,"MEAN_MOTION_DDOT":0},{"OBJECT_NAME":"STARLINK-32433","OBJECT_ID":"2024-202H","EPOCH":"2025-08-11T14:51:11.693376","MEAN_MOTION":15.27582432,"ECCENTRICITY":0.0001337,"INCLINATION":43.0006,"RA_OF_ASC_NODE":344.0484,"ARG_OF_PERICENTER":279.3394,"MEAN_ANOMALY":80.7307,"EPHEMERIS_TYPE":0,"CLASSIFICATION_TYPE":"U","NORAD_CAT_ID":61852,"ELEMENT_SET_NO":999,"REV_AT_EPOCH":4378,"BSTAR":-0.00010005,"MEAN_MOTION_DOT":-3.014e-5,"MEAN_MOTION_DDOT":0},{"OBJECT_NAME":"STARLINK-32394","OBJECT_ID":"2024-202J","EPOCH":"2025-08-11T14:54:53.897760","MEAN_MOTION":15.27572471,"ECCENTRICITY":6.77e-5,"INCLINATION":42.9999,"RA_OF_ASC_NODE":344.0648,"ARG_OF_PERICENTER":276.4389,"MEAN_ANOMALY":83.6386,"EPHEMERIS_TYPE":0,"CLASSIFICATION_TYPE":"U","NORAD_CAT_ID":61853,"ELEMENT_SET_NO":999,"REV_AT_EPOCH":4320,"BSTAR":-0.00010682,"MEAN_MOTION_DOT":-3.199e-5,"MEAN_MOTION_DDOT":0},{"OBJECT_NAME":"STARLINK-32486","OBJECT_ID":"2024-202K","EPOCH":"2025-08-12T00:25:22.904544","MEAN_MOTION":15.27573989,"ECCENTRICITY":9.92e-5,"INCLINATION":43.0024,"RA_OF_ASC_NODE":341.8804,"ARG_OF_PERICENTER":275.0916,"MEAN_ANOMALY":84.9822,"EPHEMERIS_TYPE":0,"CLASSIFICATION_TYPE":"U","NORAD_CAT_ID":61854,"ELEMENT_SET_NO":999,"REV_AT_EPOCH":4384,"BSTAR":1.8146e-5,"MEAN_MOTION_DOT":2.37e-6,"MEAN_MOTION_DDOT":0},{"OBJECT_NAME":"STARLINK-32391","OBJECT_ID":"2024-202L","EPOCH":"2025-08-12T08:21:43.061184","MEAN_MOTION":15.27571512,"ECCENTRICITY":7.29e-5,"INCLINATION":43.0017,"RA_OF_ASC_NODE":340.0647,"ARG_OF_PERICENTER":331.5793,"MEAN_ANOMALY":28.5018,"EPHEMERIS_TYPE":0,"CLASSIFICATION_TYPE":"U","NORAD_CAT_ID":61855,"ELEMENT_SET_NO":999,"REV_AT_EPOCH":4389,"BSTAR":5.8127e-5,"MEAN_MOTION_DOT":1.338e-5,"MEAN_MOTION_DDOT":0},{"OBJECT_NAME":"STARLINK-32483","OBJECT_ID":"2024-202M","EPOCH":"2025-08-12T08:27:16.458912","MEAN_MOTION":15.27528903,"ECCENTRICITY":0.0001304,"INCLINATION":43.0002,"RA_OF_ASC_NODE":340.0933,"ARG_OF_PERICENTER":287.4617,"MEAN_ANOMALY":72.6092,"EPHEMERIS_TYPE":0,"CLASSIFICATION_TYPE":"U","NORAD_CAT_ID":61856,"ELEMENT_SET_NO":999,"REV_AT_EPOCH":4389,"BSTAR":0.00034432,"MEAN_MOTION_DOT":9.21e-5,"MEAN_MOTION_DDOT":0},{"OBJECT_NAME":"STARLINK-32451","OBJECT_ID":"2024-202N","EPOCH":"2025-08-11T15:22:39.348480","MEAN_MOTION":15.27584739,"ECCENTRICITY":0.0001022,"INCLINATION":42.9987,"RA_OF_ASC_NODE":344.2128,"ARG_OF_PERICENTER":271.3016,"MEAN_ANOMALY":88.7719,"EPHEMERIS_TYPE":0,"CLASSIFICATION_TYPE":"U","NORAD_CAT_ID":61857,"ELEMENT_SET_NO":999,"REV_AT_EPOCH":4321,"BSTAR":-3.2135e-5,"MEAN_MOTION_DOT":-1.146e-5,"MEAN_MOTION_DDOT":0},{"OBJECT_NAME":"STARLINK-32556","OBJECT_ID":"2024-202P","EPOCH":"2025-08-11T15:17:06.694656","MEAN_MOTION":15.27573888,"ECCENTRICITY":9.42e-5,"INCLINATION":43.0014,"RA_OF_ASC_NODE":344.1817,"ARG_OF_PERICENTER":261.7945,"MEAN_ANOMALY":98.28,"EPHEMERIS_TYPE":0,"CLASSIFICATION_TYPE":"U","NORAD_CAT_ID":61858,"ELEMENT_SET_NO":999,"REV_AT_EPOCH":4321,"BSTAR":-0.0001136,"MEAN_MOTION_DOT":-3.386e-5,"MEAN_MOTION_DDOT":0},{"OBJECT_NAME":"STARLINK-32466","OBJECT_ID":"2024-202Q","EPOCH":"2025-08-12T08:42:04.241376","MEAN_MOTION":15.27560734,"ECCENTRICITY":0.000139,"INCLINATION":43.004,"RA_OF_ASC_NODE":340.1698,"ARG_OF_PERICENTER":298.5431,"MEAN_ANOMALY":61.5281,"EPHEMERIS_TYPE":0,"CLASSIFICATION_TYPE":"U","NORAD_CAT_ID":61859,"ELEMENT_SET_NO":999,"REV_AT_EPOCH":4389,"BSTAR":8.46e-5,"MEAN_MOTION_DOT":2.065e-5,"MEAN_MOTION_DDOT":0},{"OBJECT_NAME":"STARLINK-32316","OBJECT_ID":"2024-202R","EPOCH":"2025-08-12T08:18:42.702912","MEAN_MOTION":15.27564213,"ECCENTRICITY":0.000105,"INCLINATION":43.0016,"RA_OF_ASC_NODE":336.5854,"ARG_OF_PERICENTER":284.9228,"MEAN_ANOMALY":75.1507,"EPHEMERIS_TYPE":0,"CLASSIFICATION_TYPE":"U","NORAD_CAT_ID":61860,"ELEMENT_SET_NO":999,"REV_AT_EPOCH":4387,"BSTAR":9.5629e-5,"MEAN_MOTION_DOT":2.369e-5,"MEAN_MOTION_DDOT":0},{"OBJECT_NAME":"STARLINK-32415","OBJECT_ID":"2024-202S","EPOCH":"2025-08-12T08:53:10.292928","MEAN_MOTION":15.27570207,"ECCENTRICITY":7.28e-5,"INCLINATION":42.9985,"RA_OF_ASC_NODE":340.2259,"ARG_OF_PERICENTER":252.1259,"MEAN_ANOMALY":107.9514,"EPHEMERIS_TYPE":0,"CLASSIFICATION_TYPE":"U","NORAD_CAT_ID":61861,"ELEMENT_SET_NO":999,"REV_AT_EPOCH":4358,"BSTAR":1.2418e-5,"MEAN_MOTION_DOT":8.0e-7,"MEAN_MOTION_DDOT":0},{"OBJECT_NAME":"STARLINK-32393","OBJECT_ID":"2024-202T","EPOCH":"2025-08-12T00:56:50.813664","MEAN_MOTION":15.27578188,"ECCENTRICITY":0.0001721,"INCLINATION":43.0055,"RA_OF_ASC_NODE":342.0452,"ARG_OF_PERICENTER":271.4655,"MEAN_ANOMALY":88.5999,"EPHEMERIS_TYPE":0,"CLASSIFICATION_TYPE":"U","NORAD_CAT_ID":61862,"ELEMENT_SET_NO":999,"REV_AT_EPOCH":4369,"BSTAR":2.6318e-7,"MEAN_MOTION_DOT":-2.55e-6,"MEAN_MOTION_DDOT":0},{"OBJECT_NAME":"STARLINK-32324","OBJECT_ID":"2024-202U","EPOCH":"2025-08-12T01:13:28.992000","MEAN_MOTION":15.27566386,"ECCENTRICITY":8.92e-5,"INCLINATION":43.0025,"RA_OF_ASC_NODE":342.13,"ARG_OF_PERICENTER":240.5628,"MEAN_ANOMALY":119.5135,"EPHEMERIS_TYPE":0,"CLASSIFICATION_TYPE":"U","NORAD_CAT_ID":61863,"ELEMENT_SET_NO":999,"REV_AT_EPOCH":4384,"BSTAR":0.00015435,"MEAN_MOTION_DOT":3.986e-5,"MEAN_MOTION_DDOT":0},{"OBJECT_NAME":"STARLINK-32318","OBJECT_ID":"2024-202V","EPOCH":"2025-08-12T09:13:31.125792","MEAN_MOTION":15.27579426,"ECCENTRICITY":0.0001537,"INCLINATION":43.0052,"RA_OF_ASC_NODE":340.3316,"ARG_OF_PERICENTER":175.6526,"MEAN_ANOMALY":184.4339,"EPHEMERIS_TYPE":0,"CLASSIFICATION_TYPE":"U","NORAD_CAT_ID":61864,"ELEMENT_SET_NO":999,"REV_AT_EPOCH":4390,"BSTAR":1.635e-5,"MEAN_MOTION_DOT":1.88e-6,"MEAN_MOTION_DDOT":0},{"OBJECT_NAME":"STARLINK-32401","OBJECT_ID":"2024-202W","EPOCH":"2025-08-12T09:19:04.888128","MEAN_MOTION":15.27559118,"ECCENTRICITY":0.0001362,"INCLINATION":43.0075,"RA_OF_ASC_NODE":340.3622,"ARG_OF_PERICENTER":260.8883,"MEAN_ANOMALY":99.1814,"EPHEMERIS_TYPE":0,"CLASSIFICATION_TYPE":"U","NORAD_CAT_ID":61865,"ELEMENT_SET_NO":999,"REV_AT_EPOCH":4390,"BSTAR":0.00013773,"MEAN_MOTION_DOT":3.527e-5,"MEAN_MOTION_DDOT":0},{"OBJECT_NAME":"STARLINK-32588","OBJECT_ID":"2024-202X","EPOCH":"2025-08-12T09:09:49.896864","MEAN_MOTION":15.27552718,"ECCENTRICITY":9.45e-5,"INCLINATION":42.9999,"RA_OF_ASC_NODE":340.3104,"ARG_OF_PERICENTER":246.5842,"MEAN_ANOMALY":113.491,"EPHEMERIS_TYPE":0,"CLASSIFICATION_TYPE":"U","NORAD_CAT_ID":61866,"ELEMENT_SET_NO":999,"REV_AT_EPOCH":4390,"BSTAR":0.00018363,"MEAN_MOTION_DOT":4.79e-5,"MEAN_MOTION_DDOT":0},{"OBJECT_NAME":"STARLINK-32569","OBJECT_ID":"2024-202Y","EPOCH":"2025-08-12T07:50:29.022720","MEAN_MOTION":15.27558688,"ECCENTRICITY":0.0003261,"INCLINATION":42.9983,"RA_OF_ASC_NODE":340.7563,"ARG_OF_PERICENTER":302.0994,"MEAN_ANOMALY":57.9541,"EPHEMERIS_TYPE":0,"CLASSIFICATION_TYPE":"U","NORAD_CAT_ID":61867,"ELEMENT_SET_NO":999,"REV_AT_EPOCH":4389,"BSTAR":0.00020224,"MEAN_MOTION_DOT":5.303e-5,"MEAN_MOTION_DDOT":0}]
